[{"OBJECT_NAME":"STARLINK-34172","OBJECT_ID":"2025-113D","EPOCH":"2026-03-09T10:56:26.955456","MEAN_MOTION":15.30200712,"ECCENTRICITY":0.00014909,"INCLINATION":53.16,"RA_OF_ASC_NODE":91.9121,"ARG_OF_PERICENTER":63.0337,"MEAN_ANOMALY":297.0816,"EPHEMERIS_TYPE":0,"CLASSIFICATION_TYPE":"U","NORAD_CAT_ID":64173,"ELEMENT_SET_NO":999,"REV_AT_EPOCH":4499,"BSTAR":0.00095097904,"MEAN_MOTION_DOT":0.00027913,"MEAN_MOTION_DDOT":0},{"OBJECT_NAME":"CZ-4C DEB","OBJECT_ID":"2007-055C","EPOCH":"2026-03-09T22:46:15.652128","MEAN_MOTION":15.30523578,"ECCENTRICITY":0.00469709,"INCLINATION":97.8668,"RA_OF_ASC_NODE":247.2248,"ARG_OF_PERICENTER":277.363,"MEAN_ANOMALY":82.2273,"EPHEMERIS_TYPE":0,"CLASSIFICATION_TYPE":"U","NORAD_CAT_ID":35248,"ELEMENT_SET_NO":999,"REV_AT_EPOCH":97353,"BSTAR":0.0018809895,"MEAN_MOTION_DOT":0.000577,"MEAN_MOTION_DDOT":0}]
